NORAD_CAT_ID,OBJECT_NAME,OBJECT_TYPE,EPOCH,MEAN_MOTION,ECCENTRICITY,INCLINATION,RA_OF_ASC_NODE,ARG_OF_PERICENTER,MEAN_ANOMALY,BSTAR,MEAN_MOTION_DOT,MEAN_MOTION_DDOT,TLE_LINE0,TLE_LINE1,TLE_LINE2,SEMIMAJOR_AXIS,PERIOD,APOGEE,PERIGEE,DECAYED
52503.0,STARLINK-3861,PAYLOAD,2022-05-23 20:00:01,15.73031169,0.0002364,53.2164,180.0122,22.4967,143.441,-7.4157e-05,-0.0001094,0.0,0 STARLINK-3861,1 52503U 22049BE  22143.83334491 -.00010940  00000-0 -74157-4 0  9993,2 52503  53.2164 180.0122 0002364  22.4967 143.4410 15.73031169  2912,6728.377,91.543,351.832,348.651,0.0
52503.0,STARLINK-3861,PAYLOAD,2022-05-23 22:00:01,15.7279784,0.000241,53.2166,179.5997,29.2709,248.9883,0.0035816,0.00525705,0.0,0 STARLINK-3861,1 52503U 22049BE  22143.91668981  .00525705  00000-0  35816-2 0  9991,2 52503  53.2166 179.5997 0002410  29.2709 248.9883 15.72797840  1309,6729.042,91.557,352.529,349.285,0.0
52503.0,STARLINK-3861,PAYLOAD,2022-05-24 02:55:18,15.73131516,0.0002458,53.2144,178.58,46.8719,313.2506,-0.00029247,-0.00041353,0.0,0 STARLINK-3861,1 52503U 22049BE  22144.12174688 -.00041353  00000-0 -29247-3 0  9997,2 52503  53.2144 178.5800 0002458  46.8719 313.2506 15.73131516  2969,6728.09,91.537,351.6090000000001,348.302,0.0
52503.0,STARLINK-3861,PAYLOAD,2022-05-24 12:04:10,15.73204235,0.0002107,53.2144,176.6942,38.0475,322.0694,1.0368e-05,8.34e-06,0.0,0 STARLINK-3861,1 52503U 22049BE  22144.50290040  .00000834  00000-0  10368-4 0  9992,2 52503  53.2144 176.6942 0002107  38.0475 322.0694 15.73204235  3021,6727.8830000000025,91.533,351.166,348.331,0.0
52503.0,STARLINK-3861,PAYLOAD,2022-05-24 22:00:00,15.73195919,0.0002008,53.2144,174.6474,26.9053,158.0362,7.2754e-05,9.6e-05,0.0,0 STARLINK-3861,1 52503U 22049BE  22144.91667824  .00009600  00000-0  72754-4 0  9992,2 52503  53.2144 174.6474 0002008  26.9053 158.0362 15.73195919  1303,6727.906999999997,91.533,351.12300000000016,348.421,0.0
52503.0,STARLINK-3861,PAYLOAD,2022-05-25 12:00:00,15.73112295,0.0002219,53.2145,171.7631,17.7961,232.7541,0.00072499,0.00101991,0.0,0 STARLINK-3861,1 52503U 22049BE  22145.50001157  .00101991  00000-0  72499-3 0  9990,2 52503  53.2145 171.7631 0002219  17.7961 232.7541 15.73112295  3179,6728.145,91.538,351.50300000000016,348.517,0.0
52503.0,STARLINK-3861,PAYLOAD,2022-05-25 14:00:01,15.73136659,0.0002214,53.214,171.3505,16.9724,345.7851,0.00056744,0.00079561,0.0,0 STARLINK-3861,1 52503U 22049BE  22145.58334491  .00079561  00000-0  56744-3 0  9990,2 52503  53.2140 171.3505 0002214  16.9724 345.7851 15.73136659  1305,6728.076,91.537,351.43,348.451,0.0
52503.0,STARLINK-3861,PAYLOAD,2022-05-25 22:00:00,15.73172072,0.0001895,53.2144,169.6989,21.4759,70.1857,0.00072476,0.00102221,0.0,0 STARLINK-3861,1 52503U 22049BE  22145.91667824  .00102221  00000-0  72476-3 0  9996,2 52503  53.2144 169.6989 0001895  21.4759  70.1857 15.73172072  1302,6727.975,91.535,351.115,348.565,0.0
52503.0,STARLINK-3861,PAYLOAD,2022-05-26 06:00:00,15.73250967,0.0002092,53.2149,168.0506,23.916,156.6799,-0.00040254,-0.00056863,0.0,0 STARLINK-3861,1 52503U 22049BE  22146.25001157 -.00056863  00000-0 -40254-3 0  9996,2 52503  53.2149 168.0506 0002092  23.9160 156.6799 15.73250967  3293,6727.75,91.53,351.022,348.207,0.0
52503.0,STARLINK-3861,PAYLOAD,2022-05-26 14:23:01,15.73220321,0.0001796,53.2141,166.32,31.084,329.0286,0.00013278,0.00018071,0.0,0 STARLINK-3861,1 52503U 22049BE  22146.59932556  .00018071  00000-0  13278-3 0  9992,2 52503  53.2141 166.3200 0001796  31.0840 329.0286 15.73220321  3199,6727.837,91.532,350.911,348.494,0.0
52503.0,STARLINK-3861,PAYLOAD,2022-05-26 22:00:00,15.73159771,0.0001885,53.2148,164.7501,17.4613,341.0486,6.736100000000001e-05,8.827e-05,0.0,0 STARLINK-3861,1 52503U 22049BE  22146.91667824  .00008827  00000-0  67361-4 0  9992,2 52503  53.2148 164.7501 0001885  17.4613 341.0486 15.73159771  1304,6728.01,91.536,351.14300000000014,348.607,0.0
52503.0,STARLINK-3861,PAYLOAD,2022-05-27 02:00:01,15.73155446,0.0001881,53.2151,163.9256,17.6218,205.3241,0.0002354,0.00032482,0.0,0 STARLINK-3861,1 52503U 22049BE  22147.08334491  .00032482  00000-0  23540-3 0  9996,2 52503  53.2151 163.9256 0001881  17.6218 205.3241 15.73155446  3426,6728.022,91.536,351.153,348.622,0.0
52503.0,STARLINK-3861,PAYLOAD,2022-05-27 14:00:01,15.73190583,0.0002163,53.214,161.4531,16.2429,160.0362,0.00032285,0.00044916,0.0,0 STARLINK-3861,1 52503U 22049BE  22147.58334491  .00044916  00000-0  32285-3 0  9992,2 52503  53.2140 161.4531 0002163  16.2429 160.0362 15.73190583  1303,6727.922,91.534,351.242,348.332,0.0
52503.0,STARLINK-3861,PAYLOAD,2022-05-27 22:00:01,15.73221587,0.0001892,53.214,159.8014,20.7422,244.5459,0.00018673,0.00025691,0.0,0 STARLINK-3861,1 52503U 22049BE  22147.91668981  .00025691  00000-0  18673-3 0  9997,2 52503  53.2140 159.8014 0001892  20.7422 244.5459 15.73221587  1305,6727.834,91.532,350.972,348.426,0.0
52503.0,STARLINK-3861,PAYLOAD,2022-05-28 04:30:02,15.73244657,0.0002166,53.2146,158.4616,23.1704,336.9413,0.00023229,0.00032169,0.0,0 STARLINK-3861,1 52503U 22049BE  22148.18752544  .00032169  00000-0  23229-3 0  9997,2 52503  53.2146 158.4616 0002166  23.1704 336.9413 15.73244657  3603,6727.768,91.531,351.09,348.176,0.0
52503.0,STARLINK-3861,PAYLOAD,2022-05-28 14:00:01,15.73231615,0.0002202,53.2143,156.5047,20.5898,62.5915,-7.3969e-05,-0.00011004,0.0,0 STARLINK-3861,1 52503U 22049BE  22148.58334491 -.00011004  00000-0 -73969-4 0  9992,2 52503  53.2143 156.5047 0002202  20.5898  62.5915 15.73231615  3668,6727.805,91.531,351.152,348.189,0.0
52503.0,STARLINK-3861,PAYLOAD,2022-05-28 22:00:00,15.7317959,0.0001989,53.2143,154.8523,26.65,145.5095,0.00054565,0.00076595,0.0,0 STARLINK-3861,1 52503U 22049BE  22148.91667824  .00076595  00000-0  54565-3 0  9992,2 52503  53.2143 154.8523 0001989  26.6500 145.5095 15.73179590  1309,6727.953,91.534,351.157,348.48,0.0
52503.0,STARLINK-3861,PAYLOAD,2022-05-29 14:00:01,15.73213931,0.0002228,53.2137,151.555,22.9983,326.9831,-0.00072737,-0.00101554,0.0,0 STARLINK-3861,1 52503U 22049BE  22149.58334491 -.00101554  00000-0 -72737-3 0  9994,2 52503  53.2137 151.5550 0002228  22.9983 326.9831 15.73213931  3827,6727.855,91.532,351.219,348.221,0.0
52503.0,STARLINK-3861,PAYLOAD,2022-05-29 22:00:00,15.73109466,0.0001912,53.2139,149.9037,28.2659,50.6386,0.00035785,0.00049706,0.0,0 STARLINK-3861,1 52503U 22049BE  22149.91667824  .00049706  00000-0  35785-3 0  9990,2 52503  53.2139 149.9037 0001912  28.2659  50.6386 15.73109466  1302,6728.153,91.538,351.305,348.732,0.0
52503.0,STARLINK-3861,PAYLOAD,2022-05-30 06:00:00,15.73141274,0.0002108,53.2141,148.2562,25.4513,142.2892,0.00022374,0.00030818,0.0,0 STARLINK-3861,1 52503U 22049BE  22150.25001157  .00030818  00000-0  22374-3 0  9994,2 52503  53.2141 148.2562 0002108  25.4513 142.2892 15.73141274  3929,6728.063,91.537,351.346,348.509,0.0
52503.0,STARLINK-3861,PAYLOAD,2022-05-30 14:00:01,15.73185063,0.0002131,53.2141,146.6065,24.0237,232.5806,0.00016024,0.00021913,0.0,0 STARLINK-3861,1 52503U 22049BE  22150.58334491  .00021913  00000-0  16024-3 0  9991,2 52503  53.2141 146.6065 0002131  24.0237 232.5806 15.73185063  1305,6727.938,91.534,351.236,348.369,0.0
52503.0,STARLINK-3861,PAYLOAD,2022-05-30 22:00:00,15.7317898,0.000198,53.2146,144.9552,28.8064,316.7124,0.00062869,0.0008847,0.0,0 STARLINK-3861,1 52503U 22049BE  22150.91667824  .00088470  00000-0  62869-3 0  9996,2 52503  53.2146 144.9552 0001980  28.8064 316.7124 15.73178980  1301,6727.955,91.534,351.152,348.48800000000006,0.0
52503.0,STARLINK-3861,PAYLOAD,2022-05-31 06:00:02,15.7326297,0.0002174,53.2146,143.3076,25.7402,48.7794,-0.0005136,-0.00072287,0.0,0 STARLINK-3861,1 52503U 22049BE  22151.25002315 -.00072287  00000-0 -51360-3 0  9997,2 52503  53.2146 143.3076 0002174  25.7402  48.7794 15.73262970  1301,6727.715999999999,91.53,351.043,348.11800000000005,0.0
52503.0,STARLINK-3861,PAYLOAD,2022-05-31 14:00:01,15.73221396,0.0002086,53.2142,141.6577,22.3252,141.0989,8.766799999999999e-05,0.00011711,0.0,0 STARLINK-3861,1 52503U 22049BE  22151.58334491  .00011711  00000-0  87668-4 0  9990,2 52503  53.2142 141.6577 0002086  22.3252 141.0989 15.73221396  4136,6727.834,91.532,351.103,348.296,0.0
52503.0,STARLINK-3861,PAYLOAD,2022-05-31 22:00:00,15.73219546,0.0001813,53.2145,140.0066,25.7606,226.6186,0.00058123,0.00081821,0.0,0 STARLINK-3861,1 52503U 22049BE  22151.91667824  .00081821  00000-0  58123-3 0  9998,2 52503  53.2145 140.0066 0001813  25.7606 226.6186 15.73219546  1301,6727.839,91.532,350.9240000000001,348.485,0.0
52503.0,STARLINK-3861,PAYLOAD,2022-06-01 20:00:01,15.73192506,0.0001959,53.2152,135.4702,29.394,17.6758,0.00022381,0.00030896,0.0,0 STARLINK-3861,1 52503U 22049BE  22152.83334491  .00030896  00000-0  22381-3 0  9994,2 52503  53.2152 135.4702 0001959  29.3940  17.6758 15.73192506  4331,6727.917,91.534,351.1,348.464,0.0
52503.0,STARLINK-3861,PAYLOAD,2022-06-02 15:37:20,15.73193599,0.0002094,53.2154,131.425,42.6572,317.461,0.00014099,0.00019207,0.0,0 STARLINK-3861,1 52503U 22049BE  22153.65092867  .00019207  00000-0  14099-3 0  9993,2 52503  53.2154 131.4250 0002094  42.6572 317.4610 15.73193599  4462,6727.913000000001,91.534,351.18699999999984,348.37,0.0
52503.0,STARLINK-3861,PAYLOAD,2022-06-03 08:23:37,15.73204575,0.0002229,53.2155,127.9677,35.8661,324.2508,6.2844e-05,8.209e-05,0.0,0 STARLINK-3861,1 52503U 22049BE  22154.34973619  .00008209  00000-0  62844-4 0  9995,2 52503  53.2155 127.9677 0002229  35.8661 324.2508 15.73204575  4570,6727.882,91.533,351.247,348.247,0.0
52503.0,STARLINK-3861,PAYLOAD,2022-06-04 04:12:50,15.73253015,0.0002042,53.2154,123.8808,33.4291,326.6857,0.00024344,0.00033761,0.0,0 STARLINK-3861,1 52503U 22049BE  22155.17558686  .00033761  00000-0  24344-3 0  9993,2 52503  53.2154 123.8808 0002042  33.4291 326.6857 15.73253015  4707,6727.744000000002,91.53,350.983,348.235,0.0
